NANOSATC-BR1            
1 40024U 14033Q   26068.98267556  .00020336  00000+0  74295-3 0  9994
2 40024  98.0845  92.7804 0004644 147.6715 212.4808 15.28136801638811
STARLINK-34201          
1 64077U 25107P   26068.40500292  .00042706  00000+0  15512-2 0  9997
2 64077  42.9991 203.4388 0003357 288.4495  71.5991 15.27602563 44980
